IRIDIUM 57              
1 25273U 98019B   24301.81043574  .00001825  00000+0  62783-3 0  9992
2 25273  86.3961 242.5330 0002359  84.7410 275.4055 14.35518750391444
IRIDIUM 63              
1 25286U 98021B   24301.92031752  .00001570  00000+0  53277-3 0  9991
2 25286  86.4042 179.4778 0001988  78.0035 282.1385 14.36127891390509
IRIDIUM 69              
1 25319U 98026A   24301.73539353  .00002278  00000+0  71097-3 0  9998
2 25319  86.4043 193.5224 0004532  74.8369 285.3332 14.40443841389597
IRIDIUM 71              
1 25320U 98026B   24301.77721447  .00001747  00000+0  54098-3 0  9993
2 25320  86.4041 188.2460 0003883 107.6705 252.4919 14.40705064390122
IRIDIUM 73              
1 25344U 98032C   24301.86672916  .00002235  00000+0  55981-3 0  9997
2 25344  86.4419 145.4532 0002712  78.5286 281.6224 14.51043582396864
IRIDIUM 82              
1 25467U 98051A   24301.79017530  .00042589  00000+0  17987-2 0  9990
2 25467  86.3763 222.5440 0117335  90.2149 271.2538 15.16929932388546
